IRIDIUM 116             
1 43072U 17083C   25061.78910419  .00000680  00000+0  23566-3 0  9996
2 43072  86.4035 159.0613 0001908  92.2826 267.8588 14.34213819376608
IRIDIUM 130             
1 43073U 17083D   25061.82716816  .00000690  00000+0  23942-3 0  9996
2 43073  86.4045 159.2747 0002115  88.7421 271.4017 14.34216645376554
IRIDIUM 151             
1 43074U 17083E   25061.80179419  .00000138  00000+0  42084-4 0  9993
2 43074  86.4037 159.1031 0001955  97.6174 262.5244 14.34212965376572
IRIDIUM 134             
1 43075U 17083F   25061.70031592  .00000598  00000+0  20634-3 0  9998
2 43075  86.4042 159.1472 0002279  94.3736 265.7721 14.34213855376525
IRIDIUM 137             
1 43076U 17083G   25061.78276804  .00000521  00000+0  17892-3 0  9992
2 43076  86.4045 159.1959 0001583  97.8970 262.2406 14.34214922376601
IRIDIUM 141             
1 43077U 17083H   25062.19503697  .00000955  00000+0  33378-3 0  9990
2 43077  86.4037 158.8812 0002370 101.7423 258.4039 14.34216054376663
IRIDIUM 153             
1 43078U 17083J   25061.72860529 -.00000010  00000+0 -10633-4 0  9993
2 43078  86.3979 127.5903 0002562 104.7031 255.4449 14.34217566377700
IRIDIUM 131             
1 43079U 17083K   25061.76374125 -.00000004  00000+0 -85902-5 0  9995
2 43079  86.4040 159.2156 0002090 103.6042 256.5386 14.34217357376539
